{
    "links": {
        "self": "http://www.neowsapp.com/rest/v1/neo/3551524?api_key=iIulBulltgU6a56xZRHN4H3l9WmuAYTsLGpBGhQ2"
    },
    "id": "3551524",
    "neo_reference_id": "3551524",
    "name": "(2010 VY139)",
    "designation": "2010 VY139",
    "nasa_jpl_url": "http://ssd.jpl.nasa.gov/sbdb.cgi?sstr=3551524",
    "absolute_magnitude_h": 20.6,
    "estimated_diameter": {
        "kilometers": {
            "estimated_diameter_min": 0.2016299194,
            "estimated_diameter_max": 0.4508582062
        },
        "meters": {
            "estimated_diameter_min": 201.6299194428,
            "estimated_diameter_max": 450.8582061718
        },
        "miles": {
            "estimated_diameter_min": 0.1252869847,
            "estimated_diameter_max": 0.2801502144
        },
        "feet": {
            "estimated_diameter_min": 661.5155049046,
            "estimated_diameter_max": 1479.1936371367
        }
    },
    "is_potentially_hazardous_asteroid": false,
    "close_approach_data": [
        {
            "close_approach_date": "1983-10-09",
            "close_approach_date_full": "1983-Oct-09 17:44",
            "epoch_date_close_approach": 434569440000,
            "relative_velocity": {
                "kilometers_per_second": "4.7533866487",
                "kilometers_per_hour": "17112.1919351823",
                "miles_per_hour": "10632.8505943914"
            },
            "miss_distance": {
                "astronomical": "1.550764618",
                "lunar": "603.247436402",
                "kilometers": "231991083.72416366",
                "miles": "144152574.982472108"
            },
            "orbiting_body": "Juptr"
        },
        {
            "close_approach_date": "1985-10-12",
            "close_approach_date_full": "1985-Oct-12 17:18",
            "epoch_date_close_approach": 497985480000,
            "relative_velocity": {
                "kilometers_per_second": "18.9245275284",
                "kilometers_per_hour": "68128.2991022825",
                "miles_per_hour": "42332.2756283044"
            },
            "miss_distance": {
                "astronomical": "0.4610085627",
                "lunar": "179.3323308903",
                "kilometers": "68965899.031681449",
                "miles": "42853422.5186800362"
            },
            "orbiting_body": "Earth"
        },
        {
            "close_approach_date": "2010-11-06",
            "close_approach_date_full": "2010-Nov-06 20:55",
            "epoch_date_close_approach": 1289076900000,
            "relative_velocity": {
                "kilometers_per_second": "10.7171272434",
                "kilometers_per_hour": "38581.6580761928",
                "miles_per_hour": "23973.1419307322"
            },
            "miss_distance": {
                "astronomical": "0.2129734868",
                "lunar": "82.8466863652",
                "kilometers": "31860379.991753116",
                "miles": "19797122.1221243608"
            },
            "orbiting_body": "Earth"
        },
        {
            "close_approach_date": "2035-12-22",
            "close_approach_date_full": "2035-Dec-22 22:38",
            "epoch_date_close_approach": 2081975880000,
            "relative_velocity": {
                "kilometers_per_second": "12.7734333184",
                "kilometers_per_hour": "45984.3599461082",
                "miles_per_hour": "28572.8929898471"
            },
            "miss_distance": {
                "astronomical": "0.2254460298",
                "lunar": "87.6985055922",
                "kilometers": "33726245.858036526",
                "miles": "20956517.4095590188"
            },
            "orbiting_body": "Earth"
        },
        {
            "close_approach_date": "2042-05-12",
            "close_approach_date_full": "2042-May-12 11:06",
            "epoch_date_close_approach": 2283505560000,
            "relative_velocity": {
                "kilometers_per_second": "4.9187870253",
                "kilometers_per_hour": "17707.6332910823",
                "miles_per_hour": "11002.834696895"
            },
            "miss_distance": {
                "astronomical": "1.6295746359",
                "lunar": "633.9045333651",
                "kilometers": "243780894.536665533",
                "miles": "151478423.7172410354"
            },
            "orbiting_body": "Juptr"
        }
    ],
    "orbital_data": {
        "orbit_id": "15",
        "orbit_determination_date": "2017-04-06 08:55:41",
        "first_observation_date": "2010-11-14",
        "last_observation_date": "2011-01-26",
        "data_arc_in_days": 73,
        "observations_used": 52,
        "orbit_uncertainty": "5",
        "minimum_orbit_intersection": ".0877223",
        "jupiter_tisserand_invariant": "3.134",
        "epoch_osculation": "2459000.5",
        "eccentricity": ".5869541745502392",
        "semi_major_axis": "2.593827309192868",
        "inclination": "9.523409343762609",
        "ascending_node_longitude": "252.7367391795148",
        "orbital_period": "1525.843579216363",
        "perihelion_distance": "1.0713695419997",
        "perihelion_argument": "171.0474452247356",
        "aphelion_distance": "4.116285076386036",
        "perihelion_time": "2458572.071629089633",
        "mean_anomaly": "101.0812744035946",
        "mean_motion": ".2359350623508129",
        "equinox": "J2000",
        "orbit_class": {
            "orbit_class_type": "AMO",
            "orbit_class_description": "Near-Earth asteroid orbits similar to that of 1221 Amor",
            "orbit_class_range": "1.017 AU < q (perihelion) < 1.3 AU"
        }
    },
    "is_sentry_object": false
}